{"MO": {"city": ["Kansas City"], "zip": ["64108"], "fullname": ["Missouri"]}, "WA": {"city": ["Tacoma", "Seattle"], "zip": ["98174", "98174"], "fullname": ["Washington"]}, "TX": {"city": ["El Paso", "Fort Worth", "Los Fresnos", "San Antonio", "Pearsall", "Conroe", "Harlingen", "Houston", "Dallas"], "zip": ["77301", "75242", "79901", "79925", "76102", "78550", "77002", "77060", "77074", "78061", "78566", "78566", "78207", "78205"], "fullname": ["Texas"]}, "NY": {"city": ["Batavia", "Buffalo", "Napanoch", "Fishkill", "New York"], "zip": ["14020", "14202", "12524", "10007", "10278", "12458", "10014"], "fullname": ["New York"]}, "CA": {"city": ["San Ysidro", "Sacramento", "Los Angeles", "San Diego", "Van Nuys", "Imperial", "San Francisco", "Adelanto"], "zip": ["92301", "92251", "90012", "90014", "91401", "92154", "92143", "95814", "92101", "94104", "94111"], "fullname": ["California"]}, "LA": {"city": ["New Orleans", "Oakdale"], "zip": ["70130", "71463"], "fullname": ["Louisiana"]}, "NM": {"city": ["Chaparral"], "zip": ["88081"], "fullname": ["New Mexico"]}, "MN": {"city": ["Fort Snelling"], "zip": ["55111"], "fullname": ["Minnesota"]}, "NE": {"city": ["Omaha"], "zip": ["68110"], "fullname": ["Nebraska"]}, "CO": {"city": ["Aurora", "Denver"], "zip": ["80010", "80294"], "fullname": ["Colorado"]}, "NV": {"city": ["Las Vegas"], "zip": ["89106"], "fullname": ["Nevada"]}, "MP": {"city": ["Saipan"], "zip": ["96950", "96950"], "fullname": ["Northern Mariana Islands"]}, "TN": {"city": ["Memphis"], "zip": ["38103"], "fullname": ["Tennessee"]}, "FL": {"city": ["Miami", "Orlando"], "zip": ["33130", "33194", "32803"], "fullname": ["Florida"]}, "UT": {"city": ["West Valley City"], "zip": ["84119"], "fullname": ["Utah"]}, "MD": {"city": ["Baltimore"], "zip": ["21201"], "fullname": ["Maryland"]}, "VA": {"city": ["Falls Church", "Arlington"], "zip": ["22202", "22041"], "fullname": ["Virginia"]}, "AZ": {"city": ["Eloy", "Phoenix", "Tucson", "Florence"], "zip": ["85131", "85132", "85007", "85701"], "fullname": ["Arizona"]}, "IL": {"city": ["Chicago"], "zip": ["60607", "60605"], "fullname": ["Illinois"]}, "MA": {"city": ["Boston"], "zip": ["02203"], "fullname": ["Massachusetts"]}, "CT": {"city": ["Hartford"], "zip": ["06103"], "fullname": ["Connecticut"]}, "MI": {"city": ["Detroit"], "zip": ["48226"], "fullname": ["Michigan"]}, "GA": {"city": ["Lumpkin", "Atlanta"], "zip": ["30303", "30308", "31815"], "fullname": ["Georgia"]}, "PA": {"city": ["Philadelphia", "York"], "zip": ["19107", "17402", "17402"], "fullname": ["Pennsylvania"]}, "PR": {"city": ["Guaynabo", "San Juan"], "zip": ["00968"], "fullname": ["Puerto Rico"]}, "NC": {"city": ["Charlotte"], "zip": ["28212"], "fullname": ["North Carolina"]}, "NJ": {"city": ["Elizabeth", "Newark"], "zip": ["07201", "07102"], "fullname": ["New Jersey"]}, "HI": {"city": ["Honolulu"], "zip": ["96850"], "fullname": ["Hawaii"]}, "OH": {"city": ["Cleveland"], "zip": ["44113"], "fullname": ["Ohio"]}, "OR": {"city": ["Portland"], "zip": ["97204"], "fullname": ["Oregon"]}, "KY": {"city": ["Louisville"], "zip": ["40202"], "fullname": ["Kentucky"]}}